STARLINK-32432          
1 61257U 24175Q   26068.62795019 -.00001484  00000+0 -37980-4 0  9990
2 61257  53.1597 194.3614 0000972  61.6966 298.4133 15.30202075 81445
TEVEL2-5                
1 63214U 25052E   26068.96660006  .00021339  00000+0  71765-3 0  9991
2 63214  97.4013 325.3677 0004700  95.3936 264.7842 15.30817434 54919
